start=new Date('2022-01-09T00:00:00.000Z').valueOf();
sats=[{"TLE_LINE1":"1 45704U 20035AZ  22008.80805025  .00001837  00000-0  14221-3 0  9992","BSTAR":"0.00014221000000","TIME_SYSTEM":"UTC","COUNTRY_CODE":"US","MEAN_MOTION":"15.06401131","SEMIMAJOR_AXIS":"6925.345","GP_ID":"193488209","SITE":"AFETR","NORAD_CAT_ID":"45704","TLE_LINE2":"2 45704  53.0588  54.1004 0001334  72.0882 288.0252 15.06401131 89504","PERIAPSIS":"546.286","MEAN_MOTION_DDOT":"0.0000000000000","INCLINATION":"53.0588","OBJECT_TYPE":"PAYLOAD","MEAN_ELEMENT_THEORY":"SGP4","DECAY_DATE":null,"CENTER_NAME":"EARTH","MEAN_MOTION_DOT":"0.00001837","REV_AT_EPOCH":"8950","LAUNCH_DATE":"2020-06-04","CLASSIFICATION_TYPE":"U","FILE":"3267514","OBJECT_NAME":"STARLINK-1409","ECCENTRICITY":"0.00013340","RA_OF_ASC_NODE":"54.1004","PERIOD":"95.592","RCS_SIZE":"LARGE","REF_FRAME":"TEME","ARG_OF_PERICENTER":"72.0882","OBJECT_ID":"2020-035AZ","EPOCH":"2022-01-08T19:23:35.541600","ELEMENT_SET_NO":"999","EPHEMERIS_TYPE":"0","APOAPSIS":"548.134","MEAN_ANOMALY":"288.0252"},{"REF_FRAME":"TEME","RCS_SIZE":"LARGE","PERIOD":"95.593","ARG_OF_PERICENTER":"76.7083","OBJECT_ID":"2020-035BA","EPOCH":"2022-01-08T20:02:06.776160","EPHEMERIS_TYPE":"0","APOAPSIS":"548.344","ELEMENT_SET_NO":"999","MEAN_ANOMALY":"283.4083","LAUNCH_DATE":"2020-06-04","MEAN_MOTION_DOT":"0.00001158","REV_AT_EPOCH":"8949","OBJECT_NAME":"STARLINK-1410","FILE":"3267514","CLASSIFICATION_TYPE":"U","RA_OF_ASC_NODE":"54.0086","ECCENTRICITY":"0.00015930","TLE_LINE2":"2 45705  53.0546  54.0086 0001593  76.7083 283.4083 15.06391026 89499","NORAD_CAT_ID":"45705","PERIAPSIS":"546.138","MEAN_MOTION_DDOT":"0.0000000000000","INCLINATION":"53.0546","OBJECT_TYPE":"PAYLOAD","MEAN_ELEMENT_THEORY":"SGP4","DECAY_DATE":null,"CENTER_NAME":"EARTH","TIME_SYSTEM":"UTC","BSTAR":"0.00009662100000","TLE_LINE1":"1 45705U 20035BA  22008.83480065  .00001158  00000-0  96621-4 0  9990","COUNTRY_CODE":"US","MEAN_MOTION":"15.06391026","SEMIMAJOR_AXIS":"6925.376","GP_ID":"193488961","SITE":"AFETR"},{"SITE":"AFETR","GP_ID":"193489712","SEMIMAJOR_AXIS":"6925.338","MEAN_MOTION":"15.06403288","COUNTRY_CODE":"US","TIME_SYSTEM":"UTC","TLE_LINE1":"1 45706U 20035BB  22008.76014565  .00001267  00000-0  10391-3 0  9991","BSTAR":"0.00010391000000","CENTER_NAME":"EARTH","DECAY_DATE":null,"OBJECT_TYPE":"PAYLOAD","MEAN_ELEMENT_THEORY":"SGP4","INCLINATION":"53.0552","MEAN_MOTION_DDOT":"0.0000000000000","PERIAPSIS":"546.238","TLE_LINE2":"2 45706  53.0552  24.3350 0001394  69.8598 290.2540 15.06403288 89908","NORAD_CAT_ID":"45706","RA_OF_ASC_NODE":"24.3350","ECCENTRICITY":"0.00013940","OBJECT_NAME":"STARLINK-1411","FILE":"3267514","CLASSIFICATION_TYPE":"U","LAUNCH_DATE":"2020-06-04","REV_AT_EPOCH":"8990","MEAN_MOTION_DOT":"0.00001267","MEAN_ANOMALY":"290.2540","EPHEMERIS_TYPE":"0","APOAPSIS":"548.169","ELEMENT_SET_NO":"999","EPOCH":"2022-01-08T18:14:36.584160","OBJECT_ID":"2020-035BB","ARG_OF_PERICENTER":"69.8598","REF_FRAME":"TEME","PERIOD":"95.592","RCS_SIZE":"LARGE"},{"COUNTRY_CODE":"US","TIME_SYSTEM":"UTC","TLE_LINE1":"1 45707U 20035BC  22008.75647846  .00001511  00000-0  12031-3 0  9990","BSTAR":"0.00012031000000","SEMIMAJOR_AXIS":"6925.375","SITE":"AFETR","GP_ID":"193488460","MEAN_MOTION":"15.06391234","PERIAPSIS":"546.257","TLE_LINE2":"2 45707  53.0556  24.3563 0001420  74.3023 285.8122 15.06391234 89917","NORAD_CAT_ID":"45707","DECAY_DATE":null,"CENTER_NAME":"EARTH","MEAN_MOTION_DDOT":"0.0000000000000","INCLINATION":"53.0556","OBJECT_TYPE":"PAYLOAD","MEAN_ELEMENT_THEORY":"SGP4","LAUNCH_DATE":"2020-06-04","MEAN_MOTION_DOT":"0.00001511","REV_AT_EPOCH":"8991","RA_OF_ASC_NODE":"24.3563","ECCENTRICITY":"0.00014200","FILE":"3267514","OBJECT_NAME":"STARLINK-1412","CLASSIFICATION_TYPE":"U","ARG_OF_PERICENTER":"74.3023","OBJECT_ID":"2020-035BC","REF_FRAME":"TEME","RCS_SIZE":"LARGE","PERIOD":"95.593","MEAN_ANOMALY":"285.8122","EPOCH":"2022-01-08T18:09:19.738944","APOAPSIS":"548.224","EPHEMERIS_TYPE":"0","ELEMENT_SET_NO":"999"},{"LAUNCH_DATE":"2020-06-04","REV_AT_EPOCH":"8991","MEAN_MOTION_DOT":"-0.00000629","FILE":"3267514","OBJECT_NAME":"STARLINK-1418","CLASSIFICATION_TYPE":"U","RA_OF_ASC_NODE":"24.4722","ECCENTRICITY":"0.00013090","REF_FRAME":"TEME","RCS_SIZE":"LARGE","PERIOD":"95.593","OBJECT_ID":"2020-035BD","ARG_OF_PERICENTER":"70.1229","APOAPSIS":"548.145","EPHEMERIS_TYPE":"0","ELEMENT_SET_NO":"999","EPOCH":"2022-01-08T17:32:09.859488","MEAN_ANOMALY":"289.9901","TIME_SYSTEM":"UTC","BSTAR":"-0.00002332000000","TLE_LINE1":"1 45708U 20035BD  22008.73066967 -.00000629  00000-0 -23320-4 0  9993","COUNTRY_CODE":"US","MEAN_MOTION":"15.06391896","GP_ID":"193488710","SITE":"AFETR","SEMIMAJOR_AXIS":"6925.373","TLE_LINE2":"2 45708  53.0544  24.4722 0001309  70.1229 289.9901 15.06391896 89915","NORAD_CAT_ID":"45708","PERIAPSIS":"546.332","MEAN_ELEMENT_THEORY":"SGP4","OBJECT_TYPE":"PAYLOAD","INCLINATION":"53.0544","MEAN_MOTION_DDOT":"0.0000000000000","CENTER_NAME":"EARTH","DECAY_DATE":null},{"NORAD_CAT_ID":"45709","TLE_LINE2":"2 45709  53.0566  24.2994 0001439  74.3632 285.7515 15.06394361 89877","PERIAPSIS":"546.234","MEAN_MOTION_DDOT":"0.0000000000000","INCLINATION":"53.0566","MEAN_ELEMENT_THEORY":"SGP4","OBJECT_TYPE":"PAYLOAD","DECAY_DATE":null,"CENTER_NAME":"EARTH","TLE_LINE1":"1 45709U 20035BE  22008.76753176  .00000028  00000-0  20808-4 0  9991","BSTAR":"0.00002080800000","TIME_SYSTEM":"UTC","COUNTRY_CODE":"US","MEAN_MOTION":"15.06394361","SEMIMAJOR_AXIS":"6925.366","SITE":"AFETR","GP_ID":"193489462","PERIOD":"95.592","RCS_SIZE":"LARGE","REF_FRAME":"TEME","ARG_OF_PERICENTER":"74.3632","OBJECT_ID":"2020-035BE","EPOCH":"2022-01-08T18:25:14.744064","ELEMENT_SET_NO":"999","EPHEMERIS_TYPE":"0","APOAPSIS":"548.227","MEAN_ANOMALY":"285.7515","REV_AT_EPOCH":"8987","MEAN_MOTION_DOT":"0.00000028","LAUNCH_DATE":"2020-06-04","CLASSIFICATION_TYPE":"U","OBJECT_NAME":"STARLINK-1421","FILE":"3267514","ECCENTRICITY":"0.00014390","RA_OF_ASC_NODE":"24.2994"},{"COUNTRY_CODE":"US","BSTAR":"-0.00005373300000","TLE_LINE1":"1 45710U 20035BF  22008.76384299 -.00001081  00000-0 -53733-4 0  9994","TIME_SYSTEM":"UTC","SITE":"AFETR","GP_ID":"193489212","SEMIMAJOR_AXIS":"6925.378","MEAN_MOTION":"15.06390531","PERIAPSIS":"546.293","NORAD_CAT_ID":"45710","TLE_LINE2":"2 45710  53.0540  24.3196 0001371  64.0683 296.0448 15.06390531 89913","CENTER_NAME":"EARTH","DECAY_DATE":null,"OBJECT_TYPE":"PAYLOAD","MEAN_ELEMENT_THEORY":"SGP4","MEAN_MOTION_DDOT":"0.0000000000000","INCLINATION":"53.0540","MEAN_MOTION_DOT":"-0.00001081","REV_AT_EPOCH":"8991","LAUNCH_DATE":"2020-06-04","ECCENTRICITY":"0.00013710","RA_OF_ASC_NODE":"24.3196","CLASSIFICATION_TYPE":"U","OBJECT_NAME":"STARLINK-1423","FILE":"3267514","OBJECT_ID":"2020-035BF","ARG_OF_PERICENTER":"64.0683","RCS_SIZE":"LARGE","PERIOD":"95.593","REF_FRAME":"TEME","MEAN_ANOMALY":"296.0448","ELEMENT_SET_NO":"999","EPHEMERIS_TYPE":"0","APOAPSIS":"548.192","EPOCH":"2022-01-08T18:19:56.034336"},{"PERIAPSIS":"546.059","TLE_LINE2":"2 45711  53.0549  24.4090 0001689  63.1455 296.9706 15.06394974 89906","NORAD_CAT_ID":"45711","DECAY_DATE":null,"CENTER_NAME":"EARTH","MEAN_MOTION_DDOT":"0.0000000000000","INCLINATION":"53.0549","OBJECT_TYPE":"PAYLOAD","MEAN_ELEMENT_THEORY":"SGP4","COUNTRY_CODE":"US","TIME_SYSTEM":"UTC","BSTAR":"0.00012229000000","TLE_LINE1":"1 45711U 20035BG  22008.74541603  .00001540  00000-0  12229-3 0  9999","SEMIMAJOR_AXIS":"6925.364","SITE":"AFETR","GP_ID":"193487960","MEAN_MOTION":"15.06394974","ARG_OF_PERICENTER":"63.1455","OBJECT_ID":"2020-035BG","REF_FRAME":"TEME","RCS_SIZE":"LARGE","PERIOD":"95.592","MEAN_ANOMALY":"296.9706","EPOCH":"2022-01-08T17:53:23.944992","APOAPSIS":"548.399","EPHEMERIS_TYPE":"0","ELEMENT_SET_NO":"999","LAUNCH_DATE":"2020-06-04","REV_AT_EPOCH":"8990","MEAN_MOTION_DOT":"0.00001540","RA_OF_ASC_NODE":"24.4090","ECCENTRICITY":"0.00016890","OBJECT_NAME":"STARLINK-1433","FILE":"3267514","CLASSIFICATION_TYPE":"U"},{"PERIAPSIS":"546.082","TLE_LINE2":"2 45712  53.0550  24.4262 0001659  73.0027 287.1144 15.06394359 89918","NORAD_CAT_ID":"45712","CENTER_NAME":"EARTH","DECAY_DATE":null,"MEAN_ELEMENT_THEORY":"SGP4","OBJECT_TYPE":"PAYLOAD","INCLINATION":"53.0550","MEAN_MOTION_DDOT":"0.0000000000000","COUNTRY_CODE":"US","TIME_SYSTEM":"UTC","BSTAR":"0.00005017800000","TLE_LINE1":"1 45712U 20035BH  22008.74172993  .00000466  00000-0  50178-4 0  9994","SITE":"AFETR","GP_ID":"193488210","SEMIMAJOR_AXIS":"6925.366","MEAN_MOTION":"15.06394359","OBJECT_ID":"2020-035BH","ARG_OF_PERICENTER":"73.0027","REF_FRAME":"TEME","RCS_SIZE":"LARGE","PERIOD":"95.592","MEAN_ANOMALY":"287.1144","APOAPSIS":"548.380","EPHEMERIS_TYPE":"0","ELEMENT_SET_NO":"999","EPOCH":"2022-01-08T17:48:05.465952","LAUNCH_DATE":"2020-06-04","REV_AT_EPOCH":"8991","MEAN_MOTION_DOT":"0.00000466","RA_OF_ASC_NODE":"24.4262","ECCENTRICITY":"0.00016590","FILE":"3267514","OBJECT_NAME":"STARLINK-1434","CLASSIFICATION_TYPE":"U"},{"GP_ID":"193488962","SITE":"AFETR","SEMIMAJOR_AXIS":"6925.357","MEAN_MOTION":"15.06397210","COUNTRY_CODE":"US","BSTAR":"0.00005121900000","TLE_LINE1":"1 45713U 20035BJ  22008.82834502  .00000481  00000-0  51219-4 0  9999","TIME_SYSTEM":"UTC","CENTER_NAME":"EARTH","DECAY_DATE":null,"OBJECT_TYPE":"PAYLOAD","MEAN_ELEMENT_THEORY":"SGP4","INCLINATION":"53.0544","MEAN_MOTION_DDOT":"0.0000000000000","PERIAPSIS":"546.267","NORAD_CAT_ID":"45713","TLE_LINE2":"2 45713  53.0544  44.0347 0001379  72.5270 287.5869 15.06397210 89633","ECCENTRICITY":"0.00013790","RA_OF_ASC_NODE":"44.0347","CLASSIFICATION_TYPE":"U","FILE":"3267514","OBJECT_NAME":"STARLINK-1436","MEAN_MOTION_DOT":"0.00000481","REV_AT_EPOCH":"8963","LAUNCH_DATE":"2020-06-04","MEAN_ANOMALY":"287.5869","ELEMENT_SET_NO":"999","EPHEMERIS_TYPE":"0","APOAPSIS":"548.177","EPOCH":"2022-01-08T19:52:49.009728","OBJECT_ID":"2020-035BJ","ARG_OF_PERICENTER":"72.5270","RCS_SIZE":"LARGE","PERIOD":"95.592","REF_FRAME":"TEME"}];
